IRIDIUM 150             
1 43257U 18030J   23246.57429972  .00000323  00000+0  10810-3 0  9995
2 43257  86.4026 355.7589 0002370  87.0574 273.0893 14.34218368284303
IRIDIUM 143             
1 43258U 18030K   23246.55526887  .00000408  00000+0  13847-3 0  9994
2 43258  86.4031 355.8187 0001985  89.9619 270.1804 14.34220125284233
IRIDIUM 161             
1 43478U 18047C   23246.46159700  .00000057  00000+0  10912-4 0  9993
2 43478  86.4552 153.8392 0002411  83.9236 276.2240 14.43272429278343
IRIDIUM 152             
1 43479U 18047D   23246.24892424  .00000370  00000+0  12524-3 0  9995
2 43479  86.4025 153.7882 0002030  79.6646 280.4778 14.34215835276581
IRIDIUM 147             
1 43480U 18047E   23246.46456782  .00000419  00000+0  14239-3 0  9993
2 43480  86.4026 153.6855 0002253  88.2087 271.9366 14.34216591276617
IRIDIUM 110             
1 43481U 18047F   23246.26160444  .00000454  00000+0  15504-3 0  9994
2 43481  86.4027 153.8354 0002529  84.1290 276.0195 14.34218160276577
IRIDIUM 162             
1 43482U 18047G   23246.24731057  .00000549  00000+0  15730-3 0  9993
2 43482  86.4547 153.8325 0002278  83.3445 276.8015 14.43282966278304
IRIDIUM 160             
1 43569U 18061A   23246.41674497  .00000347  00000+0  11699-3 0  9994
2 43569  86.3964 122.1675 0001886  88.4912 271.6500 14.34220111267492
